#dP2018  4 21  0  0  0.00000000      96 __u+U IGS08 FIT  IAC
## 1997 518400.00000000   900.00000000 58229 0.0000000000000
+   86   C01C02C03C04C05C06C07C08C09C10C11C12C13C14E01E02E03
+        E04E05E07E08E09E11E12E14E18E19E24E26E30G01G02G03G05
+        G06G07G08G09G10G11G12G13G14G15G16G17G18G19G20G21G22
+        G23G24G25G26G27G28G29G30G31G32J01J02J03R01R02R03R04
+        R07R08R09R10R11R13R14R15R16R17R18R19R20R21R22R23R24
+        R26  0  0  0  0  0  0  0  0  0  0  0  0  0  0  0  0
++        12 12 12 12 12  9  8  9  8  8  7  7  8  8  7  7  7
++         7  7  7  7  7  7  7  7  7  7  7  7  7  3  3  3  3
++         3  3  6  3  3  3  3  3  3  3  3  3  3  3  3  3  3
++         3  3  3  3  3  3  3  3  3  3  9 11 11  5  5  5  5
++         5  5  5  5  5  5  6  5  5  5  5  5  5  5  5  5  5
++         8  0  0  0  0  0  0  0  0  0  0  0  0  0  0  0  0
%c M  cc GPS ccc cccc cccc cccc cccc ccccc ccccc ccccc ccccc
%c cc cc ccc ccc cccc cccc cccc cccc ccccc ccccc ccccc ccccc
%f  1.2500000  1.025000000  0.00000000000  0.000000000000000
%f  0.0000000  0.000000000  0.00000000000  0.000000000000000
%i    0    0    0    0      0      0      0      0         0
%i    0    0    0    0      0      0      0      0         0
/* INFORMATION & ANALYSIS CENTER (IAC)            FINAL DATA
/* S/V CLOCKS ARE ALIGNED TO GPS & GLONASS TIME RESPECTIVELY
/* USING THE BROADCAST EPHEMERIS                            
/* PCV:IGS14_1992 OL/AL:FES2004  NONE     YN ORB:CoN CLK:CoN
*  2018 04 21 16 45  0.00000000
PC01 -32265.136365  27132.907883   -973.097040    640.175966
PC02   4363.829597  41924.717157   1230.976320    589.516877
PC03 -14794.444415  39526.546443   -304.296314   -395.914027
PC04 -39590.735468  14465.541016   -319.841910   -220.131144
PC05  21944.032967  35990.677839   1583.945134     46.290778
PC06 -11603.660717  37344.908106  16436.145721     -0.291149
PC07 -12397.562942  22307.283401 -33454.208210    180.055419
PC08 -26073.278682  28225.796563  17171.184387    298.230206
PC09  -1930.165552  42288.627888    637.650784   -199.603316
PC10   2873.571531  27927.479290 -31268.439693   -174.633668
PC11  16127.575767 -22755.191568   1756.167458   -477.157740
PC12  19553.560936  -8203.105113  18241.502045    421.047281
PC13 -11901.536335  29415.610850  27661.837951   -298.460102
PC14   8341.699702 -16046.734413 -21176.031442    422.507214
PE01  27815.965037   9795.138148   2528.701983   -326.949634
PE02 -27820.928249  -9767.012695  -2569.931161     11.291298
PE03 -17080.104613  -9729.482849  22140.255575    -23.546599
PE04  14493.190710 -12716.733068 -22448.160142    -18.948403
PE05  -9660.092465 -26543.511516   8849.869285    280.160951
PE07  -3408.896958  27791.120313   9608.384957     46.316570
PE08 -14255.318011  12810.398774  22564.428536   6599.898043
PE09   3090.113833 -27809.088078  -9662.102170   6813.660507
PE11  12538.722915 -22338.106073 -14807.217794   1833.340389
PE12  24667.783391 -15882.070124   3828.338306   3987.982344
PE14  16188.348922 -10415.365746  13821.597979   6595.417796
PE18 -22623.514149   8553.342359 -21545.603463   6265.286430
PE19  16700.475512  11723.215347 -21438.322147     21.564381
PE24   3244.310591 -16121.484548  24594.753324   6747.150985
PE26   6330.672723  15833.997062  24201.697300   6024.429187
PE30 -21969.060734   4498.429074 -19331.111576   5902.210156
PG01  -4723.457154 -14365.270985 -21987.184424    -42.283009
PG02 -17999.025030  14822.013345  13041.734809    137.937296
PG03 -10891.657270 -22116.754751  -9979.028230     55.264219
PG05  -7424.200189  14148.961810  21088.799520     -9.427904
PG06 -25771.016081   6442.540672    768.354274    407.728827
PG07 -20292.159272  -7282.454542  16015.100457    203.945341
PG08   4061.302749 -25670.971238  -5012.920068    -98.626088
PG09 -10918.855362 -13413.083374  20121.222317    511.876380
PG10  20552.120618   5903.843073 -15810.316272    180.443456
PG11  -1306.142222 -18371.745709 -19736.860722   -737.250832
PG12   7703.851408  22426.503140 -12352.189949    338.263763
PG13 -12459.415877  23288.434302   2717.957640    -94.987374
PG14  16687.450233 -13979.431053 -14806.667537    -96.340911
PG15  -1468.911965  25759.839515  -5587.296387   -355.205573
PG16   8284.464335 -12612.993264  21648.376685     27.056483
PG17 -16166.313459   5506.150018 -19918.725265   -104.963177
PG18   4741.821243 -16573.865024 -20613.706638     -0.345665
PG19 -17196.845713  12076.214333 -16647.520371   -442.034420
PG20  17851.868095  19344.279880   3771.611540    506.340189
PG21  22279.560812   4718.093218  14466.174752   -404.640400
PG22  -3820.302025 -20575.330831 -16105.931709   -365.654400
PG23  -2600.378213 -23195.609735  12543.630258   -217.783560
PG24   1153.964716  15810.059580 -21405.354930    -48.800278
PG25  17869.282005  19827.024902   -322.202635   -573.169490
PG26  16129.165444  -4266.754760  20684.253975   -174.961442
PG27  12272.775676 -22037.228002   7808.322038    370.113778
PG28 -19687.157836 -10739.688298 -13572.771956    708.370918
PG29   7408.007518  16664.022441  19299.344606    462.592556
PG30 -25362.217821  -1538.085049   8014.808646     82.342085
PG31  25828.276335  -6706.075672   2403.584068    126.918763
PG32  16350.605855  -4466.584933 -20395.003836   -518.365592
PJ01 -25062.077351  23426.271271  29620.396609   -294.816896
PJ02 -32396.343745  15590.433809 -17598.757685      1.143918
PJ03 -22254.763951  30867.267858 -13548.300096    -16.042732
PR01  -6570.028379 -24517.597945  -2607.896261     25.134759
PR02 -12632.460923 -15229.654780  16110.417327    305.958925
PR03 -10630.687166   2855.426252  23053.033319    130.081300
PR04  -2095.557572  19540.571551  16290.314057    258.029396
PR07  10485.384320  -3214.848939 -22992.048889    -35.697141
PR08   2445.741797 -19114.006156 -16657.340302    -13.797138
PR09  23188.343428   8631.423809  -6058.930292     32.920947
PR10  22845.673800    235.808409  11234.426094     22.952772
PR11   8896.424123  -8793.656142  22231.283249    -26.985128
PR13 -23523.782262  -8002.697690   5754.072599     -9.653204
PR14 -23025.043804   -156.295305 -10983.290623     26.539678
PR15 -12568.627468   6935.250910 -21056.810831     -9.076763
PR16   9582.910769  12061.413225 -20394.150774     90.761342
PR17 -18859.112781  11330.465467 -12874.897037    126.491274
PR18 -16019.941605  19537.947326   3783.682410    192.734588
PR19  -4513.351517  16724.706896  18730.061546    -50.594912
PR20  10899.018825   3589.157883  22783.121216   -335.187015
PR21  18874.333337 -11613.759991  12647.652527     19.826641
PR22  15048.104190 -19686.606995  -5743.007564    -36.765649
PR23   1123.102430 -14877.130887 -20691.423531    149.086147
PR24 -11618.461207  -2640.137149 -22579.319900   -165.307851
PR26  10667.438273   3833.143586  22865.163226     14.182370
EOF
